STARLINK-30427          
1 57865U 23144B   26067.67654380  .00000036  00000+0  10830-4 0  9999
2 57865  43.0007 290.8198 0001476 234.3471 125.7243 15.27578133137441
JINJUSAT-1B             
1 63210U 25052A   26068.66363707  .00019955  00000+0  68430-3 0  9998
2 63210  97.4113 325.4613 0005550  82.1930 277.9941 15.30194857 54866
